NORAD_CAT_ID,OBJECT_NAME,OBJECT_TYPE,EPOCH,MEAN_MOTION,ECCENTRICITY,INCLINATION,RA_OF_ASC_NODE,ARG_OF_PERICENTER,MEAN_ANOMALY,BSTAR,MEAN_MOTION_DOT,MEAN_MOTION_DDOT,TLE_LINE0,TLE_LINE1,TLE_LINE2,SEMIMAJOR_AXIS,PERIOD,APOGEE,PERIGEE,DECAYED
51715.0,STARLINK-3533,PAYLOAD,2022-05-18 22:00:00,15.08847088,0.0002111,53.2208,92.534,48.7861,79.7789,-0.00018598,-3.248e-05,0.0,0 STARLINK-3533,1 51715U 22016B   22138.91667824 -.00003248  00000-0 -18598-3 0  9992,2 51715  53.2208  92.5340 0002111  48.7861  79.7789 15.08847088  1303,6917.859,95.437,541.184,538.263,0.0
51715.0,STARLINK-3533,PAYLOAD,2022-05-19 06:00:00,15.08814337,0.0002223,53.2208,91.0396,42.8061,97.3651,0.0014036,0.00022105,0.0,0 STARLINK-3533,1 51715U 22016B   22139.25001157  .00022105  00000-0  14036-2 0  9994,2 51715  53.2208  91.0396 0002223  42.8061  97.3651 15.08814337 14645,6917.959,95.439,541.362,538.286,0.0
51715.0,STARLINK-3533,PAYLOAD,2022-05-19 14:00:01,15.08838981,0.0002034,53.2206,89.542,44.758,107.0497,-0.00045927,-7.59e-05,0.0,0 STARLINK-3533,1 51715U 22016B   22139.58335648 -.00007590  00000-0 -45927-3 0  9992,2 51715  53.2206  89.5420 0002034  44.7580 107.0497 15.08838981  1307,6917.884,95.438,541.156,538.341,0.0
51715.0,STARLINK-3533,PAYLOAD,2022-05-19 22:00:00,15.08853001,0.0001942,53.2209,88.0458,47.5011,115.8357,-0.0015959,-0.00025607,0.0,0 STARLINK-3533,1 51715U 22016B   22139.91667824 -.00025607  00000-0 -15959-2 0  9993,2 51715  53.2209  88.0458 0001942  47.5011 115.8357 15.08853001  1304,6917.840999999999,95.437,541.049,538.362,0.0
51715.0,STARLINK-3533,PAYLOAD,2022-05-20 06:00:00,15.08815401,0.0002078,53.2205,86.5513,41.3342,133.6044,0.0027743,0.00044112,0.0,0 STARLINK-3533,1 51715U 22016B   22140.25001157  .00044112  00000-0  27743-2 0  9997,2 51715  53.2205  86.5513 0002078  41.3342 133.6044 15.08815401 14795,6917.956,95.439,541.258,538.383,0.0
51715.0,STARLINK-3533,PAYLOAD,2022-05-20 14:00:01,15.08842223,0.0001852,53.2202,85.0535,43.1946,143.3298,-0.0019761,-0.00031603,0.0,0 STARLINK-3533,1 51715U 22016B   22140.58334491 -.00031603  00000-0 -19761-2 0  9997,2 51715  53.2202  85.0535 0001852  43.1946 143.3298 15.08842223  1303,6917.874,95.437,541.02,538.457,0.0
51715.0,STARLINK-3533,PAYLOAD,2022-05-20 22:00:00,15.08852345,0.0001785,53.2201,83.5575,46.1818,151.9186,-0.002145,-0.00034276,0.0,0 STARLINK-3533,1 51715U 22016B   22140.91667824 -.00034276  00000-0 -21450-2 0  9990,2 51715  53.2201  83.5575 0001785  46.1818 151.9186 15.08852345 14890,6917.843000000003,95.437,540.942,538.4730000000002,0.0
51715.0,STARLINK-3533,PAYLOAD,2022-05-21 06:00:00,15.08806768,0.0001935,53.22,82.0628,38.9599,170.7434,0.0026169,0.00041568,0.0,0 STARLINK-3533,1 51715U 22016B   22141.25001157  .00041568  00000-0  26169-2 0  9991,2 51715  53.2200  82.0628 0001935  38.9599 170.7434 15.08806768  1309,6917.982,95.44,541.186,538.508,0.0
51715.0,STARLINK-3533,PAYLOAD,2022-05-21 14:00:01,15.08845012,0.0001747,53.2197,80.5648,42.7662,178.5852,0.00060053,9.284e-05,0.0,0 STARLINK-3533,1 51715U 22016B   22141.58335648  .00009284  00000-0  60053-3 0  9992,2 51715  53.2197  80.5648 0001747  42.7662 178.5852 15.08845012 14998,6917.865,95.437,540.939,538.5219999999998,0.0
51715.0,STARLINK-3533,PAYLOAD,2022-05-21 22:00:00,15.08832606,0.0001854,53.2192,79.0686,48.3516,184.5296,0.00045597,6.975e-05,0.0,0 STARLINK-3533,1 51715U 22016B   22141.91667824  .00006975  00000-0  45597-3 0  9993,2 51715  53.2192  79.0686 0001854  48.3516 184.5296 15.08832606  1302,6917.903,95.438,541.0509999999998,538.485,0.0
51715.0,STARLINK-3533,PAYLOAD,2022-05-22 06:00:00,15.08826985,0.0001998,53.2195,77.5741,42.9548,201.5168,0.0017202,0.00027185,0.0,0 STARLINK-3533,1 51715U 22016B   22142.25001157  .00027185  00000-0  17202-2 0  9999,2 51715  53.2195  77.5741 0001998  42.9548 201.5168 15.08826985 15096,6917.92,95.438,541.1669999999998,538.403,0.0
51715.0,STARLINK-3533,PAYLOAD,2022-05-22 14:00:01,15.0882963,0.0001822,53.2195,76.0759,45.8629,210.2089,0.00098203,0.00015371,0.0,0 STARLINK-3533,1 51715U 22016B   22142.58334491  .00015371  00000-0  98203-3 0  9990,2 51715  53.2195  76.0759 0001822  45.8629 210.2089 15.08829630  1305,6917.9119999999975,95.438,541.038,538.5169999999998,0.0
51715.0,STARLINK-3533,PAYLOAD,2022-05-22 22:00:01,15.08847921,0.0001903,53.2195,74.5799,49.5543,218.1683,-0.0011994,-0.0001933,0.0,0 STARLINK-3533,1 51715U 22016B   22142.91668981 -.00019330  00000-0 -11994-2 0  9993,2 51715  53.2195  74.5799 0001903  49.5543 218.1683 15.08847921 15190,6917.856,95.437,541.038,538.405,0.0
51715.0,STARLINK-3533,PAYLOAD,2022-05-23 14:00:01,15.08828452,0.0001842,53.2197,71.5868,46.5475,244.3026,-3.1673e-05,-7.92e-06,0.0,0 STARLINK-3533,1 51715U 22016B   22143.58334491 -.00000792  00000-0 -31673-4 0  9993,2 51715  53.2197  71.5868 0001842  46.5475 244.3026 15.08828452  1307,6917.916,95.438,541.055,538.506,0.0
51715.0,STARLINK-3533,PAYLOAD,2022-05-23 22:00:01,15.08832513,0.0001845,53.2199,70.0909,46.7355,255.7569,-0.00091583,-0.00014831,0.0,0 STARLINK-3533,1 51715U 22016B   22143.91668981 -.00014831  00000-0 -91583-3 0  9998,2 51715  53.2199  70.0909 0001845  46.7355 255.7569 15.08832513 15341,6917.903,95.438,541.045,538.492,0.0
51715.0,STARLINK-3533,PAYLOAD,2022-05-24 12:33:47,15.08830711,0.0002323,53.2237,67.3707,41.1958,318.9209,-1.859e-05,-5.84e-06,0.0,0 STARLINK-3533,1 51715U 22016B   22144.52346153 -.00000584  00000-0 -18590-4 0  9998,2 51715  53.2237  67.3707 0002323  41.1958 318.9209 15.08830711 15441,6917.909000000002,95.438,541.381,538.1669999999998,0.0
51715.0,STARLINK-3533,PAYLOAD,2022-05-24 22:00:00,15.08843339,0.0001828,53.2205,65.6021,44.544,292.6164,-0.00055242,-9.07e-05,0.0,0 STARLINK-3533,1 51715U 22016B   22144.91667824 -.00009070  00000-0 -55242-3 0  9995,2 51715  53.2205  65.6021 0001828  44.5440 292.6164 15.08843339 15491,6917.87,95.437,541.0,538.471,0.0
51715.0,STARLINK-3533,PAYLOAD,2022-05-25 14:00:01,15.08811736,0.0001854,53.2208,62.609,47.2434,313.1251,0.0030426,0.00048431,0.0,0 STARLINK-3533,1 51715U 22016B   22145.58334491  .00048431  00000-0  30426-2 0  9998,2 51715  53.2208  62.6090 0001854  47.2434 313.1251 15.08811736  1306,6917.967,95.439,541.114,538.549,0.0
51715.0,STARLINK-3533,PAYLOAD,2022-05-25 21:56:52,15.0883941,0.000174,53.2219,61.1225,49.07100000000001,311.0433,5.7296e-05,6.24e-06,0.0,0 STARLINK-3533,1 51715U 22016B   22145.91449513  .00000624  00000-0  57296-4 0  9995,2 51715  53.2219  61.1225 0001740  49.0710 311.0433 15.08839410 15654,6917.882,95.438,540.951,538.543,0.0
51715.0,STARLINK-3533,PAYLOAD,2022-05-25 22:00:00,15.08873879,0.0001899,53.2211,61.1135,46.7673,325.1802,-0.0036069,-0.0005729,0.0,0 STARLINK-3533,1 51715U 22016B   22145.91667824 -.00057290  00000-0 -36069-2 0  9998,2 51715  53.2211  61.1135 0001899  46.7673 325.1802 15.08873879 15645,6917.776999999999,95.435,540.956,538.328,0.0
51715.0,STARLINK-3533,PAYLOAD,2022-05-26 14:00:01,15.08830944,0.0001725,53.2212,58.1203,45.6383,349.5111,0.00042842,6.535e-05,0.0,0 STARLINK-3533,1 51715U 22016B   22146.58334491  .00006535  00000-0  42842-3 0  9994,2 51715  53.2212  58.1203 0001725  45.6383 349.5111 15.08830944 15753,6917.908,95.438,540.966,538.58,0.0
51715.0,STARLINK-3533,PAYLOAD,2022-05-26 22:00:00,15.08845539,0.0001794,53.2214,56.6251,44.718,2.0144,-0.00097028,-0.00015699,0.0,0 STARLINK-3533,1 51715U 22016B   22146.91667824 -.00015699  00000-0 -97028-3 0  9999,2 51715  53.2214  56.6251 0001794  44.7180   2.0144 15.08845539  1301,6917.863,95.437,540.97,538.487,0.0
51715.0,STARLINK-3533,PAYLOAD,2022-05-27 14:00:01,15.08805401,0.0001738,53.2203,53.6309,48.1786,21.7483,0.002621,0.00041632,0.0,0 STARLINK-3533,1 51715U 22016B   22147.58334491  .00041632  00000-0  26210-2 0  9992,2 51715  53.2203  53.6309 0001738  48.1786  21.7483 15.08805401  1306,6917.986,95.44,541.053,538.649,0.0
51715.0,STARLINK-3533,PAYLOAD,2022-05-27 16:00:00,15.08809495,0.0001795,53.2213,53.2577,50.82899999999999,111.9858,0.0025279,0.00040139,0.0,0 STARLINK-3533,1 51715U 22016B   22147.66667824  .00040139  00000-0  25279-2 0  9995,2 51715  53.2213  53.2577 0001795  50.8290 111.9858 15.08809495 15910,6917.974,95.439,541.08,538.597,0.0
51715.0,STARLINK-3533,PAYLOAD,2022-05-27 21:38:27,15.08795663,0.000195,53.2224,52.2027,64.0711,296.0482,0.00049585,7.603e-05,0.0,0 STARLINK-3533,1 51715U 22016B   22147.90170908  .00007603  00000-0  49585-3 0  9990,2 51715  53.2224  52.2027 0001950  64.0711 296.0482 15.08795663 15952,6918.016,95.44,541.23,538.5319999999998,0.0
51715.0,STARLINK-3533,PAYLOAD,2022-05-28 14:00:01,15.08846436,0.0001740999999999,53.2209,49.1435,50.5604,54.1408,0.00084702,0.0001322,0.0,0 STARLINK-3533,1 51715U 22016B   22148.58334491  .00013220  00000-0  84702-3 0  9996,2 51715  53.2209  49.1435 0001741  50.5604  54.1408 15.08846436 16050,6917.861,95.437,540.93,538.521,0.0
51715.0,STARLINK-3533,PAYLOAD,2022-05-28 21:29:13,15.08847715,0.0001939,53.2223,47.7431,48.0399,312.0759,0.00014858,2.078e-05,0.0,0 STARLINK-3533,1 51715U 22016B   22148.89529256  .00002078  00000-0  14858-3 0  9999,2 51715  53.2223  47.7431 0001939  48.0399 312.0759 15.08847715 16100,6917.857,95.437,541.063,538.38,0.0
51715.0,STARLINK-3533,PAYLOAD,2022-05-29 06:00:02,15.08853539,0.0001923,53.2205,46.1528,43.5699,84.40899999999998,-0.0027329,-0.00043536,0.0,0 STARLINK-3533,1 51715U 22016B   22149.25002315 -.00043536  00000-0 -27329-2 0  9994,2 51715  53.2205  46.1528 0001923  43.5699  84.4090 15.08853539 16150,6917.839,95.437,541.034,538.374,0.0
51715.0,STARLINK-3533,PAYLOAD,2022-05-29 14:00:01,15.08788276,0.0001740999999999,53.2205,44.655,50.1345,89.3845,0.0024571,0.00038978,0.0,0 STARLINK-3533,1 51715U 22016B   22149.58334491  .00038978  00000-0  24571-2 0  9991,2 51715  53.2205  44.6550 0001741  50.1345  89.3845 15.08788276  1306,6918.038000000001,95.441,541.1080000000002,538.6990000000002,0.0
